start=new Date('2022-05-21T00:00:00.000Z').valueOf();
sats=[{"OBJECT_NAME":"STARLINK-3664","TLE_LINE2":"2 51984  53.2164 153.9204 0001810  44.2507 215.8071 15.08839320 12495","TLE_LINE1":"1 51984U 22025AE  22140.83334491  .00026487  00000-0  16761-2 0  9992","OBJECT_TYPE":"PAYLOAD","COUNTRY_CODE":"US","GP_ID":"204045274","OBJECT_ID":"2022-025AE","NORAD_CAT_ID":"51984","SEMIMAJOR_AXIS":"6917.882","REV_AT_EPOCH":"1249","MEAN_ELEMENT_THEORY":"SGP4","APOAPSIS":"541.000","EPHEMERIS_TYPE":"0","LAUNCH_DATE":"2022-03-09","CLASSIFICATION_TYPE":"U","RA_OF_ASC_NODE":"153.9204","RCS_SIZE":"LARGE","MEAN_MOTION_DDOT":"0.0000000000000","TIME_SYSTEM":"UTC","ECCENTRICITY":"0.00018100","MEAN_ANOMALY":"215.8071","PERIAPSIS":"538.495","MEAN_MOTION_DOT":"0.00026487","BSTAR":"0.00167610000000","MEAN_MOTION":"15.08839320","EPOCH":"2022-05-20T20:00:01.000224","CENTER_NAME":"EARTH","ARG_OF_PERICENTER":"44.2507","FILE":"3455273","INCLINATION":"53.2164","REF_FRAME":"TEME","ELEMENT_SET_NO":"999","PERIOD":"95.438","SITE":"AFETR","DECAY_DATE":null},{"BSTAR":"0.00164860000000","MEAN_ANOMALY":"46.3182","MEAN_MOTION_DOT":"0.00026046","PERIAPSIS":"538.709","EPOCH":"2022-05-20T20:00:01.000224","MEAN_MOTION":"15.08838734","ELEMENT_SET_NO":"999","ARG_OF_PERICENTER":"53.7462","CENTER_NAME":"EARTH","INCLINATION":"53.2104","REF_FRAME":"TEME","FILE":"3455273","SITE":"AFETR","PERIOD":"95.438","DECAY_DATE":null,"TLE_LINE1":"1 51985U 22025AF  22140.83334491  .00026046  00000-0  16486-2 0  9998","TLE_LINE2":"2 51985  53.2104 153.9473 0001504  53.7462  46.3182 15.08838734 12480","OBJECT_NAME":"STARLINK-3651","APOAPSIS":"540.790","MEAN_ELEMENT_THEORY":"SGP4","GP_ID":"204045009","OBJECT_ID":"2022-025AF","NORAD_CAT_ID":"51985","OBJECT_TYPE":"PAYLOAD","COUNTRY_CODE":"US","REV_AT_EPOCH":"1248","SEMIMAJOR_AXIS":"6917.884","RCS_SIZE":"LARGE","EPHEMERIS_TYPE":"0","RA_OF_ASC_NODE":"153.9473","CLASSIFICATION_TYPE":"U","LAUNCH_DATE":"2022-03-09","ECCENTRICITY":"0.00015040","MEAN_MOTION_DDOT":"0.0000000000000","TIME_SYSTEM":"UTC"},{"MEAN_MOTION":"15.08794399","EPOCH":"2022-05-20T14:00:01.000224","MEAN_ANOMALY":"333.2840","PERIAPSIS":"538.720","MEAN_MOTION_DOT":"0.00048448","BSTAR":"0.00304510000000","PERIOD":"95.440","SITE":"AFETR","DECAY_DATE":null,"CENTER_NAME":"EARTH","ARG_OF_PERICENTER":"48.1283","FILE":"3455160","INCLINATION":"53.2163","REF_FRAME":"TEME","ELEMENT_SET_NO":"999","COUNTRY_CODE":"US","OBJECT_TYPE":"PAYLOAD","GP_ID":"204043904","NORAD_CAT_ID":"51986","OBJECT_ID":"2022-025AG","REV_AT_EPOCH":"130","SEMIMAJOR_AXIS":"6918.020","MEAN_ELEMENT_THEORY":"SGP4","APOAPSIS":"541.050","OBJECT_NAME":"STARLINK-3645","TLE_LINE2":"2 51986  53.2163 155.0443 0001684  48.1283 333.2840 15.08794399  1300","TLE_LINE1":"1 51986U 22025AG  22140.58334491  .00048448  00000-0  30451-2 0  9999","TIME_SYSTEM":"UTC","MEAN_MOTION_DDOT":"0.0000000000000","ECCENTRICITY":"0.00016840","EPHEMERIS_TYPE":"0","LAUNCH_DATE":"2022-03-09","CLASSIFICATION_TYPE":"U","RA_OF_ASC_NODE":"155.0443","RCS_SIZE":"LARGE"},{"SEMIMAJOR_AXIS":"6917.913","REV_AT_EPOCH":"130","COUNTRY_CODE":"US","OBJECT_TYPE":"PAYLOAD","OBJECT_ID":"2022-025AH","GP_ID":"204043974","NORAD_CAT_ID":"51987","MEAN_ELEMENT_THEORY":"SGP4","APOAPSIS":"540.961","OBJECT_NAME":"STARLINK-3644","TLE_LINE2":"2 51987  53.2161 155.0450 0001709  40.3217 261.0873 15.08829250  1305","TLE_LINE1":"1 51987U 22025AH  22140.58334491 -.00000078  00000-0  13188-4 0  9998","TIME_SYSTEM":"UTC","MEAN_MOTION_DDOT":"0.0000000000000","ECCENTRICITY":"0.00017090","LAUNCH_DATE":"2022-03-09","CLASSIFICATION_TYPE":"U","RA_OF_ASC_NODE":"155.0450","EPHEMERIS_TYPE":"0","RCS_SIZE":"LARGE","MEAN_MOTION":"15.08829250","EPOCH":"2022-05-20T14:00:01.000224","PERIAPSIS":"538.596","MEAN_MOTION_DOT":"-0.00000078","MEAN_ANOMALY":"261.0873","BSTAR":"0.00001318800000","DECAY_DATE":null,"PERIOD":"95.438","SITE":"AFETR","FILE":"3455160","REF_FRAME":"TEME","INCLINATION":"53.2161","CENTER_NAME":"EARTH","ARG_OF_PERICENTER":"40.3217","ELEMENT_SET_NO":"999"},{"RCS_SIZE":"LARGE","CLASSIFICATION_TYPE":"U","LAUNCH_DATE":"2022-03-09","RA_OF_ASC_NODE":"155.0440","EPHEMERIS_TYPE":"0","ECCENTRICITY":"0.00017760","TIME_SYSTEM":"UTC","MEAN_MOTION_DDOT":"0.0000000000000","TLE_LINE2":"2 51988  53.2159 155.0440 0001776  47.5988 353.7660 15.08721737  1304","TLE_LINE1":"1 51988U 22025AJ  22140.58334491  .00109585  00000-0  68197-2 0  9999","OBJECT_NAME":"STARLINK-3640","MEAN_ELEMENT_THEORY":"SGP4","APOAPSIS":"541.336","SEMIMAJOR_AXIS":"6918.242","REV_AT_EPOCH":"130","OBJECT_TYPE":"PAYLOAD","COUNTRY_CODE":"US","NORAD_CAT_ID":"51988","GP_ID":"204043833","OBJECT_ID":"2022-025AJ","ELEMENT_SET_NO":"999","FILE":"3455160","INCLINATION":"53.2159","REF_FRAME":"TEME","CENTER_NAME":"EARTH","ARG_OF_PERICENTER":"47.5988","DECAY_DATE":null,"PERIOD":"95.445","SITE":"AFETR","BSTAR":"0.00681970000000","PERIAPSIS":"538.878","MEAN_MOTION_DOT":"0.00109585","MEAN_ANOMALY":"353.7660","EPOCH":"2022-05-20T14:00:01.000224","MEAN_MOTION":"15.08721737"},{"BSTAR":"-0.00104000000000","MEAN_ANOMALY":"195.0523","MEAN_MOTION_DOT":"-0.00016804","PERIAPSIS":"538.529","EPOCH":"2022-05-20T20:00:01.000224","MEAN_MOTION":"15.08844894","ELEMENT_SET_NO":"999","CENTER_NAME":"EARTH","ARG_OF_PERICENTER":"45.0194","INCLINATION":"53.2172","REF_FRAME":"TEME","FILE":"3455282","SITE":"AFETR","PERIOD":"95.437","DECAY_DATE":null,"TLE_LINE1":"1 51989U 22025AK  22140.83334491 -.00016804  00000-0 -10400-2 0  9995","TLE_LINE2":"2 51989  53.2172 153.9207 0001736  45.0194 195.0523 15.08844894 12493","OBJECT_NAME":"STARLINK-3642","APOAPSIS":"540.931","MEAN_ELEMENT_THEORY":"SGP4","NORAD_CAT_ID":"51989","GP_ID":"204045047","OBJECT_ID":"2022-025AK","COUNTRY_CODE":"US","OBJECT_TYPE":"PAYLOAD","REV_AT_EPOCH":"1249","SEMIMAJOR_AXIS":"6917.865","RCS_SIZE":"LARGE","EPHEMERIS_TYPE":"0","RA_OF_ASC_NODE":"153.9207","CLASSIFICATION_TYPE":"U","LAUNCH_DATE":"2022-03-09","ECCENTRICITY":"0.00017360","MEAN_MOTION_DDOT":"0.0000000000000","TIME_SYSTEM":"UTC"},{"PERIOD":"91.856","SITE":"AFETR","DECAY_DATE":null,"ARG_OF_PERICENTER":"90.4184","CENTER_NAME":"EARTH","FILE":"3455160","REF_FRAME":"TEME","INCLINATION":"53.2171","ELEMENT_SET_NO":"999","MEAN_MOTION":"15.67662664","EPOCH":"2022-05-20T14:00:01.000224","MEAN_ANOMALY":"266.2831","PERIAPSIS":"364.913","MEAN_MOTION_DOT":"-0.00717511","BSTAR":"-0.00701830000000","TIME_SYSTEM":"UTC","MEAN_MOTION_DDOT":"0.0000000000000","ECCENTRICITY":"0.00010100","EPHEMERIS_TYPE":"0","LAUNCH_DATE":"2022-03-09","CLASSIFICATION_TYPE":"U","RA_OF_ASC_NODE":"143.3511","RCS_SIZE":"LARGE","OBJECT_TYPE":"PAYLOAD","COUNTRY_CODE":"US","OBJECT_ID":"2022-025AL","GP_ID":"204044239","NORAD_CAT_ID":"51990","REV_AT_EPOCH":"130","SEMIMAJOR_AXIS":"6743.729","MEAN_ELEMENT_THEORY":"SGP4","APOAPSIS":"366.275","OBJECT_NAME":"STARLINK-3657","TLE_LINE2":"2 51990  53.2171 143.3511 0001010  90.4184 266.2831 15.67662664  1302","TLE_LINE1":"1 51990U 22025AL  22140.58334491 -.00717511  00000-0 -70183-2 0  9996"},{"MEAN_MOTION_DDOT":"0.0000000000000","TIME_SYSTEM":"UTC","ECCENTRICITY":"0.00016430","RA_OF_ASC_NODE":"153.9189","CLASSIFICATION_TYPE":"U","LAUNCH_DATE":"2022-03-09","EPHEMERIS_TYPE":"0","RCS_SIZE":"LARGE","REV_AT_EPOCH":"1248","SEMIMAJOR_AXIS":"6917.786","GP_ID":"204045083","NORAD_CAT_ID":"51991","OBJECT_ID":"2022-025AM","OBJECT_TYPE":"PAYLOAD","COUNTRY_CODE":"US","APOAPSIS":"540.788","MEAN_ELEMENT_THEORY":"SGP4","OBJECT_NAME":"STARLINK-3652","TLE_LINE1":"1 51991U 22025AM  22140.83334491 -.00023076  00000-0 -14352-2 0  9997","TLE_LINE2":"2 51991  53.2175 153.9189 0001643  39.8621 240.1668 15.08870821 12481","DECAY_DATE":null,"SITE":"AFETR","PERIOD":"95.436","INCLINATION":"53.2175","REF_FRAME":"TEME","FILE":"3455279","ARG_OF_PERICENTER":"39.8621","CENTER_NAME":"EARTH","ELEMENT_SET_NO":"999","MEAN_MOTION":"15.08870821","EPOCH":"2022-05-20T20:00:01.000224","MEAN_MOTION_DOT":"-0.00023076","PERIAPSIS":"538.515","MEAN_ANOMALY":"240.1668","BSTAR":"-0.00143520000000"},{"MEAN_MOTION":"15.67675671","EPOCH":"2022-05-20T14:00:01.000224","MEAN_ANOMALY":"267.1539","PERIAPSIS":"364.888","MEAN_MOTION_DOT":"-0.00717296","BSTAR":"-0.00701230000000","PERIOD":"91.856","SITE":"AFETR","DECAY_DATE":null,"ARG_OF_PERICENTER":"91.6282","CENTER_NAME":"EARTH","FILE":"3455160","INCLINATION":"53.2171","REF_FRAME":"TEME","ELEMENT_SET_NO":"999","OBJECT_TYPE":"PAYLOAD","COUNTRY_CODE":"US","GP_ID":"204044167","OBJECT_ID":"2022-025AN","NORAD_CAT_ID":"51992","SEMIMAJOR_AXIS":"6743.692","REV_AT_EPOCH":"130","MEAN_ELEMENT_THEORY":"SGP4","APOAPSIS":"366.225","OBJECT_NAME":"STARLINK-3643","TLE_LINE2":"2 51992  53.2171 143.3582 0000992  91.6282 267.1539 15.67675671  1309","TLE_LINE1":"1 51992U 22025AN  22140.58334491 -.00717296  00000-0 -70123-2 0  9992","MEAN_MOTION_DDOT":"0.0000000000000","TIME_SYSTEM":"UTC","ECCENTRICITY":"0.00009920","EPHEMERIS_TYPE":"0","CLASSIFICATION_TYPE":"U","LAUNCH_DATE":"2022-03-09","RA_OF_ASC_NODE":"143.3582","RCS_SIZE":"LARGE"},{"COUNTRY_CODE":"US","OBJECT_TYPE":"PAYLOAD","GP_ID":"204044071","NORAD_CAT_ID":"51993","OBJECT_ID":"2022-025AP","SEMIMAJOR_AXIS":"6917.813","REV_AT_EPOCH":"130","MEAN_ELEMENT_THEORY":"SGP4","APOAPSIS":"541.180","OBJECT_NAME":"STARLINK-3648","TLE_LINE2":"2 51993  53.2183 155.0308 0002172  47.2134  14.1703 15.08862144  1305","TLE_LINE1":"1 51993U 22025AP  22140.58334491 -.00033915  00000-0 -21215-2 0  9990","TIME_SYSTEM":"UTC","MEAN_MOTION_DDOT":"0.0000000000000","ECCENTRICITY":"0.00021720","EPHEMERIS_TYPE":"0","CLASSIFICATION_TYPE":"U","LAUNCH_DATE":"2022-03-09","RA_OF_ASC_NODE":"155.0308","RCS_SIZE":"LARGE","MEAN_MOTION":"15.08862144","EPOCH":"2022-05-20T14:00:01.000224","MEAN_ANOMALY":"14.1703","PERIAPSIS":"538.175","MEAN_MOTION_DOT":"-0.00033915","BSTAR":"-0.00212150000000","PERIOD":"95.436","SITE":"AFETR","DECAY_DATE":null,"CENTER_NAME":"EARTH","ARG_OF_PERICENTER":"47.2134","FILE":"3455160","REF_FRAME":"TEME","INCLINATION":"53.2183","ELEMENT_SET_NO":"999"}];
